{
  "norad_id": 58775,
  "name": "STARLINK-31123",
  "history": [
    {
      "epoch": "2026-03-28T20:01:05.502144Z",
      "apogee_km": 475.82995711111016,
      "perigee_km": 474.64391221797814,
      "latitude_deg": 1.782874518635407e-05,
      "longitude_deg": 158.0664337252769,
      "height_km": 476.048793560164,
      "semi_major_axis_km": 6853.373934664544,
      "eccentricity": 8.653e-05,
      "inclination_deg": 53.1595,
      "raan_deg": 284.5882,
      "arg_perigee_deg": 81.5918,
      "mean_anomaly_deg": 278.5181,
      "mean_motion_rev_day": 15.30192677
    }
  ]
}